CCSDS_OMM_VERS = 2.0
CREATION_DATE  = 
ORIGINATOR     = 

OBJECT_NAME    = SL-3 R/B
OBJECT_ID      = 1982-079B
CENTER_NAME    = EARTH
REF_FRAME      = TEME
TIME_SYSTEM    = UTC
MEAN_ELEMENT_THEORY = SGP/SGP4

EPOCH          = 2026-01-22T04:41:03.679008
MEAN_MOTION    = 15.24132437
ECCENTRICITY   = .0024822
INCLINATION    = 81.1442
RA_OF_ASC_NODE = 247.9571
ARG_OF_PERICENTER = 325.9224
MEAN_ANOMALY   = 34.0414

EPHEMERIS_TYPE = 0
CLASSIFICATION_TYPE = U
NORAD_CAT_ID   = 13403
ELEMENT_SET_NO = 999
REV_AT_EPOCH   = 37061
BSTAR          = .28458638E-3
MEAN_MOTION_DOT = .7005E-4
MEAN_MOTION_DDOT = 0

CCSDS_OMM_VERS = 2.0
CREATION_DATE  = 
ORIGINATOR     = 

OBJECT_NAME    = SL-14 R/B
OBJECT_ID      = 1982-092B
CENTER_NAME    = EARTH
REF_FRAME      = TEME
TIME_SYSTEM    = UTC
MEAN_ELEMENT_THEORY = SGP/SGP4

EPOCH          = 2026-01-22T05:19:55.177824
MEAN_MOTION    = 14.86605144
ECCENTRICITY   = .00218865
INCLINATION    = 82.5679
RA_OF_ASC_NODE = 184.8493
ARG_OF_PERICENTER = 95.1002
MEAN_ANOMALY   = 77.4928

EPHEMERIS_TYPE = 0
CLASSIFICATION_TYPE = U
NORAD_CAT_ID   = 13553
ELEMENT_SET_NO = 999
REV_AT_EPOCH   = 32202
BSTAR          = .10759966E-3
MEAN_MOTION_DOT = .983E-5
MEAN_MOTION_DDOT = 0

CCSDS_OMM_VERS = 2.0
CREATION_DATE  = 
ORIGINATOR     = 

OBJECT_NAME    = SL-3 R/B
OBJECT_ID      = 1983-010B
CENTER_NAME    = EARTH
REF_FRAME      = TEME
TIME_SYSTEM    = UTC
MEAN_ELEMENT_THEORY = SGP/SGP4

EPOCH          = 2026-01-22T03:29:00.076128
MEAN_MOTION    = 15.44720240
ECCENTRICITY   = .0016648
INCLINATION    = 81.1016
RA_OF_ASC_NODE = 59.2488
ARG_OF_PERICENTER = 204.3301
MEAN_ANOMALY   = 155.7159

EPHEMERIS_TYPE = 0
CLASSIFICATION_TYPE = U
NORAD_CAT_ID   = 13819
ELEMENT_SET_NO = 999
REV_AT_EPOCH   = 35075
BSTAR          = .32896234E-3
MEAN_MOTION_DOT = .15479E-3
MEAN_MOTION_DDOT = 0

CCSDS_OMM_VERS = 2.0
CREATION_DATE  = 
ORIGINATOR     = 

OBJECT_NAME    = SL-3 R/B
OBJECT_ID      = 1983-075B
CENTER_NAME    = EARTH
REF_FRAME      = TEME
TIME_SYSTEM    = UTC
MEAN_ELEMENT_THEORY = SGP/SGP4

EPOCH          = 2026-01-22T05:27:00.097344
MEAN_MOTION    = 15.37131799
ECCENTRICITY   = .00236735
INCLINATION    = 97.6121
RA_OF_ASC_NODE = 25.1012
ARG_OF_PERICENTER = 40.0873
MEAN_ANOMALY   = 320.2112

EPHEMERIS_TYPE = 0
CLASSIFICATION_TYPE = U
NORAD_CAT_ID   = 14208
ELEMENT_SET_NO = 999
REV_AT_EPOCH   = 32301
BSTAR          = .3908008E-3
MEAN_MOTION_DOT = .14261E-3
MEAN_MOTION_DDOT = 0

CCSDS_OMM_VERS = 2.0
CREATION_DATE  = 
ORIGINATOR     = 

OBJECT_NAME    = COSMOS 1536
OBJECT_ID      = 1984-013A
CENTER_NAME    = EARTH
REF_FRAME      = TEME
TIME_SYSTEM    = UTC
MEAN_ELEMENT_THEORY = SGP/SGP4

EPOCH          = 2026-01-21T22:55:47.463744
MEAN_MOTION    = 15.23130598
ECCENTRICITY   = .00156584
INCLINATION    = 82.5476
RA_OF_ASC_NODE = 154.2660
ARG_OF_PERICENTER = 87.8604
MEAN_ANOMALY   = 272.4425

EPHEMERIS_TYPE = 0
CLASSIFICATION_TYPE = U
NORAD_CAT_ID   = 14699
ELEMENT_SET_NO = 999
REV_AT_EPOCH   = 26550
BSTAR          = .42102305E-3
MEAN_MOTION_DOT = .10004E-3
MEAN_MOTION_DDOT = 0

CCSDS_OMM_VERS = 2.0
CREATION_DATE  = 
ORIGINATOR     = 

OBJECT_NAME    = SL-14 R/B
OBJECT_ID      = 1984-027B
CENTER_NAME    = EARTH
REF_FRAME      = TEME
TIME_SYSTEM    = UTC
MEAN_ELEMENT_THEORY = SGP/SGP4

EPOCH          = 2026-01-22T05:30:33.940800
MEAN_MOTION    = 14.85925228
ECCENTRICITY   = .00192224
INCLINATION    = 82.5427
RA_OF_ASC_NODE = 288.5907
ARG_OF_PERICENTER = 124.3675
MEAN_ANOMALY   = 235.9363

EPHEMERIS_TYPE = 0
CLASSIFICATION_TYPE = U
NORAD_CAT_ID   = 14820
ELEMENT_SET_NO = 999
REV_AT_EPOCH   = 24073
BSTAR          = .98597926E-4
MEAN_MOTION_DOT = .887E-5
MEAN_MOTION_DDOT = 0

CCSDS_OMM_VERS = 2.0
CREATION_DATE  = 
ORIGINATOR     = 

OBJECT_NAME    = SL-8 R/B
OBJECT_ID      = 1985-006B
CENTER_NAME    = EARTH
REF_FRAME      = TEME
TIME_SYSTEM    = UTC
MEAN_ELEMENT_THEORY = SGP/SGP4

EPOCH          = 2026-01-22T08:02:14.182368
MEAN_MOTION    = 14.37753392
ECCENTRICITY   = .00197763
INCLINATION    = 74.0470
RA_OF_ASC_NODE = 346.4405
ARG_OF_PERICENTER = 272.2612
MEAN_ANOMALY   = 238.4816

EPHEMERIS_TYPE = 0
CLASSIFICATION_TYPE = U
NORAD_CAT_ID   = 15483
ELEMENT_SET_NO = 999
REV_AT_EPOCH   = 14736
BSTAR          = .20192942E-3
MEAN_MOTION_DOT = .583E-5
MEAN_MOTION_DDOT = 0

CCSDS_OMM_VERS = 2.0
CREATION_DATE  = 
ORIGINATOR     = 

OBJECT_NAME    = SL-12 R/B(2)
OBJECT_ID      = 1985-042D
CENTER_NAME    = EARTH
REF_FRAME      = TEME
TIME_SYSTEM    = UTC
MEAN_ELEMENT_THEORY = SGP/SGP4

EPOCH          = 2026-01-22T05:12:49.694976
MEAN_MOTION    = 14.21965750
ECCENTRICITY   = .00360031
INCLINATION    = 71.1067
RA_OF_ASC_NODE = 185.9070
ARG_OF_PERICENTER = 201.3884
MEAN_ANOMALY   = 331.4698

EPHEMERIS_TYPE = 0
CLASSIFICATION_TYPE = U
NORAD_CAT_ID   = 15772
ELEMENT_SET_NO = 999
REV_AT_EPOCH   = 10778
BSTAR          = .13840226E-3
MEAN_MOTION_DOT = .26E-5
MEAN_MOTION_DDOT = 0

CCSDS_OMM_VERS = 2.0
CREATION_DATE  = 
ORIGINATOR     = 

OBJECT_NAME    = SL-14 R/B
OBJECT_ID      = 1985-069B
CENTER_NAME    = EARTH
REF_FRAME      = TEME
TIME_SYSTEM    = UTC
MEAN_ELEMENT_THEORY = SGP/SGP4

EPOCH          = 2026-01-22T05:28:56.498016
MEAN_MOTION    = 14.86374765
ECCENTRICITY   = .00184943
INCLINATION    = 82.5247
RA_OF_ASC_NODE = 68.6343
ARG_OF_PERICENTER = 351.2063
MEAN_ANOMALY   = 8.8826

EPHEMERIS_TYPE = 0
CLASSIFICATION_TYPE = U
NORAD_CAT_ID   = 15945
ELEMENT_SET_NO = 999
REV_AT_EPOCH   = 16593
BSTAR          = .92497874E-4
MEAN_MOTION_DOT = .842E-5
MEAN_MOTION_DDOT = 0

CCSDS_OMM_VERS = 2.0
CREATION_DATE  = 
ORIGINATOR     = 

OBJECT_NAME    = SL-16 R/B
OBJECT_ID      = 1985-097B
CENTER_NAME    = EARTH
REF_FRAME      = TEME
TIME_SYSTEM    = UTC
MEAN_ELEMENT_THEORY = SGP/SGP4

EPOCH          = 2026-01-22T08:00:02.213280
MEAN_MOTION    = 14.16590964
ECCENTRICITY   = .00089653
INCLINATION    = 71.0005
RA_OF_ASC_NODE = 238.1439
ARG_OF_PERICENTER = 314.3955
MEAN_ANOMALY   = 218.1919

EPHEMERIS_TYPE = 0
CLASSIFICATION_TYPE = U
NORAD_CAT_ID   = 16182
ELEMENT_SET_NO = 999
REV_AT_EPOCH   = 8066
BSTAR          = -.50610676E-4
MEAN_MOTION_DOT = -.149E-5
MEAN_MOTION_DDOT = 0

CCSDS_OMM_VERS = 2.0
CREATION_DATE  = 
ORIGINATOR     = 

OBJECT_NAME    = SL-14 R/B
OBJECT_ID      = 1986-006B
CENTER_NAME    = EARTH
REF_FRAME      = TEME
TIME_SYSTEM    = UTC
MEAN_ELEMENT_THEORY = SGP/SGP4

EPOCH          = 2026-01-22T05:13:17.053536
MEAN_MOTION    = 14.86737099
ECCENTRICITY   = .00781519
INCLINATION    = 82.5288
RA_OF_ASC_NODE = 303.4702
ARG_OF_PERICENTER = 67.1784
MEAN_ANOMALY   = 293.7663

EPHEMERIS_TYPE = 0
CLASSIFICATION_TYPE = U
NORAD_CAT_ID   = 16496
ELEMENT_SET_NO = 999
REV_AT_EPOCH   = 14230
BSTAR          = .1442837E-3
MEAN_MOTION_DOT = .1384E-4
MEAN_MOTION_DDOT = 0

CCSDS_OMM_VERS = 2.0
CREATION_DATE  = 
ORIGINATOR     = 

OBJECT_NAME    = COSMOS 1743
OBJECT_ID      = 1986-034A
CENTER_NAME    = EARTH
REF_FRAME      = TEME
TIME_SYSTEM    = UTC
MEAN_ELEMENT_THEORY = SGP/SGP4

EPOCH          = 2026-01-22T05:38:12.720480
MEAN_MOTION    = 15.55028141
ECCENTRICITY   = .00054011
INCLINATION    = 82.5352
RA_OF_ASC_NODE = 122.4469
ARG_OF_PERICENTER = 103.7831
MEAN_ANOMALY   = 256.4024

EPHEMERIS_TYPE = 0
CLASSIFICATION_TYPE = U
NORAD_CAT_ID   = 16719
ELEMENT_SET_NO = 999
REV_AT_EPOCH   = 17302
BSTAR          = .61660092E-3
MEAN_MOTION_DOT = .4157E-3
MEAN_MOTION_DDOT = 0

