SL-3 R/B                
1 13403U 82079B   26022.19518147  .00007005  00000+0  28459-3 0  9997
2 13403  81.1442 247.9571 0024822 325.9224  34.0414 15.24132437370618
SL-14 R/B               
1 13553U 82092B   26022.22216641  .00000983  00000+0  10760-3 0  9990
2 13553  82.5679 184.8493 0021886  95.1002  77.4928 14.86605144322020
SL-3 R/B                
1 13819U 83010B   26022.14513977  .00015479  00000+0  32896-3 0  9999
2 13819  81.1016  59.2488 0016648 204.3301 155.7159 15.44720240350757
SL-3 R/B                
1 14208U 83075B   26022.22708446  .00014261  00000+0  39080-3 0  9999
2 14208  97.6121  25.1012 0023673  40.0873 320.2112 15.37131799323013
COSMOS 1536             
1 14699U 84013A   26021.95541046  .00010004  00000+0  42102-3 0  9996
2 14699  82.5476 154.2660 0015658  87.8604 272.4425 15.23130598265506
SL-14 R/B               
1 14820U 84027B   26022.22955950  .00000887  00000+0  98598-4 0  9990
2 14820  82.5427 288.5907 0019222 124.3675 235.9363 14.85925228240731
SL-8 R/B                
1 15483U 85006B   26022.33488637  .00000583  00000+0  20193-3 0  9997
2 15483  74.0470 346.4405 0019776 272.2612 238.4816 14.37753392147360
SL-12 R/B(2)            
1 15772U 85042D   26022.21724184  .00000260  00000+0  13840-3 0  9998
2 15772  71.1067 185.9070 0036003 201.3884 331.4698 14.21965750107781
SL-14 R/B               
1 15945U 85069B   26022.22843169  .00000842  00000+0  92498-4 0  9998
2 15945  82.5247  68.6343 0018494 351.2063   8.8826 14.86374765165937
SL-16 R/B               
1 16182U 85097B   26022.33335895 -.00000149  00000+0 -50611-4 0  9990
2 16182  71.0005 238.1439 0008965 314.3955 218.1919 14.16590964 80667
SL-14 R/B               
1 16496U 86006B   26022.21755849  .00001384  00000+0  14428-3 0  9996
2 16496  82.5288 303.4702 0078151  67.1784 293.7663 14.86737099142305
COSMOS 1743             
1 16719U 86034A   26022.23486945  .00041570  00000+0  61660-3 0  9996
2 16719  82.5352 122.4469 0005401 103.7831 256.4024 15.55028141173020
